KUIPER-00071            
1 64818U 25151C   25204.62116593  .00027322  00000+0  78816-3 0  9995
2 64818  51.8778 252.1547 0005619 164.4393 195.6767 15.35485633  1120
KUIPER-00072            
1 64819U 25151D   25204.55745093 -.00019061  00000+0 -53988-3 0  9997
2 64819  51.8766 252.4724 0005344 176.5822 183.5201 15.35176768  1118
KUIPER-00073            
1 64820U 25151E   25204.55715699  .00036753  00000+0  10620-2 0  9998
2 64820  51.8784 252.4767 0005592 171.5501 188.5580 15.35282562  2296
KUIPER-00074            
1 64821U 25151F   25204.62197729  .00025229  00000+0  73282-3 0  9995
2 64821  51.8768 252.1541 0005589 172.1354 187.9721 15.35313867  1129
KUIPER-00075            
1 64822U 25151G   25204.62141353 -.00016508  00000+0 -46241-3 0  9995
2 64822  51.8779 252.1575 0005282 165.0781 195.0362 15.35412287  1121
KUIPER-00076            
1 64823U 25151H   25204.62222430 -.00018908  00000+0 -53439-3 0  9995
2 64823  51.8769 252.1564 0005272 173.8238 186.2814 15.35238015  1121
KUIPER-00077            
1 64824U 25151J   25204.62316083  .00023383  00000+0  68512-3 0  9993
2 64824  51.8781 252.1682 0005741 181.2814 178.8158 15.35085063  1122
KUIPER-00078            
1 64825U 25151K   25204.55791260  .00025618  00000+0  75002-3 0  9995
2 64825  51.8776 252.4781 0005960 181.5784 178.5184 15.35055674  1112
